{
"type": "FeatureCollection",
"name": "AREA_TPS3R_Sangat_Berpotensi",
"crs": { "type": "name", "properties": { "name": "urn:ogc:def:crs:EPSG::32749" } },
"features": [
{ "type": "Feature", "properties": { "Id": 1, "gridcode": 3 }, "geometry": { "type": "MultiPolygon", "coordinates": [ [ [ [ 438897.178169785067439, 9230746.258538400754333 ], [ 438899.388482191599905, 9230751.423589766025543 ], [ 438899.436935097910464, 9230751.536814369261265 ], [ 438906.473956734873354, 9230747.850327171385288 ], [ 438897.156585366465151, 9230746.208099998533726 ], [ 438897.178169785067439, 9230746.258538400754333 ] ] ] ] } },
{ "type": "Feature", "properties": { "Id": 3, "gridcode": 3 }, "geometry": { "type": "MultiPolygon", "coordinates": [ [ [ [ 438897.156585366465151, 9230746.208099998533726 ], [ 438902.691579110920429, 9230729.151256052777171 ], [ 438919.41958661749959, 9230694.671101249754429 ], [ 438936.31015897449106, 9230661.883519615978003 ], [ 438935.985873848199844, 9230645.992578763514757 ], [ 438944.476720101200044, 9230616.652892174199224 ], [ 438814.829829080961645, 9230570.098692193627357 ], [ 438767.955365913920105, 9230627.839274467900395 ], [ 438867.194635446183383, 9230708.032261528074741 ], [ 438891.379761941730976, 9230740.657810082659125 ], [ 438897.156585366465151, 9230746.208099998533726 ] ] ] ] } },
{ "type": "Feature", "properties": { "Id": 6, "gridcode": 3 }, "geometry": { "type": "MultiPolygon", "coordinates": [ [ [ [ 438892.792001503752545, 9230545.3081 ], [ 438888.692001503775828, 9230545.3081 ], [ 438888.692001503775828, 9230541.208100000396371 ], [ 438878.066604012332391, 9230539.533497491851449 ], [ 438868.192001503775828, 9230537.108099998906255 ], [ 438864.092001503799111, 9230537.108099998906255 ], [ 438864.092001503799111, 9230533.008099999278784 ], [ 438811.411480873939581, 9230530.984313072636724 ], [ 438759.23169876949396, 9230521.898386254906654 ], [ 438723.761593789036851, 9230512.604193748906255 ], [ 438692.340564125974197, 9230501.591261925175786 ], [ 438675.8730294884881, 9230553.604662956669927 ], [ 438761.144909066089895, 9230567.188477959483862 ], [ 438852.393119210086297, 9230563.571761956438422 ], [ 438902.394807595061138, 9230554.865111412480474 ], [ 438911.16383149032481, 9230548.815646996721625 ], [ 438892.792001503752545, 9230545.3081 ] ] ] ] } },
{ "type": "Feature", "properties": { "Id": 7, "gridcode": 3 }, "geometry": { "type": "MultiPolygon", "coordinates": [ [ [ [ 438523.792001503985375, 9230446.908099999651313 ], [ 438507.3920015040203, 9230446.908099999651313 ], [ 438501.524738282256294, 9230451.436862053349614 ], [ 438495.092001504031941, 9230467.408099999651313 ], [ 438531.809995812480338, 9230493.97992998547852 ], [ 438538.220155877177604, 9230465.436270013451576 ], [ 438540.192001504008658, 9230455.108099998906255 ], [ 438540.192001504008658, 9230451.008099999278784 ], [ 438531.992001503997017, 9230451.008099999278784 ], [ 438523.792001503985375, 9230451.008099999278784 ], [ 438523.792001503985375, 9230446.908099999651313 ] ] ] ] } }
]
}
