{
"type": "FeatureCollection",
"name": "AREA_TPS3R_Kurang_Berpotensi",
"crs": { "type": "name", "properties": { "name": "urn:ogc:def:crs:EPSG::32749" } },
"features": [
{ "type": "Feature", "properties": { "Id": 4, "gridcode": 1 }, "geometry": { "type": "MultiPolygon", "coordinates": [ [ [ [ 439274.092001503508072, 9230647.8081 ], [ 439269.992001503531355, 9230647.8081 ], [ 439267.942001503484789, 9230653.05928560718894 ], [ 439265.892001503496431, 9230647.8081 ], [ 439236.295689552847762, 9230671.487483086064458 ], [ 439228.992001503531355, 9230680.608099998906255 ], [ 439296.679162758402526, 9230677.513393273577094 ], [ 439340.585060280340258, 9230642.986771265044808 ], [ 439377.866369789582677, 9230594.369965234771371 ], [ 439386.763862770516425, 9230568.984511436894536 ], [ 439379.888217323750723, 9230559.736270012333989 ], [ 439356.786491554696113, 9230573.375263849273324 ], [ 439304.920140236383304, 9230621.236270012333989 ], [ 439274.092001503508072, 9230647.8081 ] ] ] ] } },
{ "type": "Feature", "properties": { "Id": 5, "gridcode": 1 }, "geometry": { "type": "MultiPolygon", "coordinates": [ [ [ [ 439204.392001503554638, 9230533.008099999278784 ], [ 439132.449501198425423, 9230597.850642265751958 ], [ 439132.832499855663627, 9230607.514476647600532 ], [ 439095.820140236523002, 9230637.636270012706518 ], [ 439079.438720864010975, 9230645.367312492802739 ], [ 439079.154506081249565, 9230652.538746515288949 ], [ 439143.878839272132609, 9230669.498386254534125 ], [ 439177.663862770656124, 9230674.536270013079047 ], [ 439196.192001503542997, 9230676.508099999278784 ], [ 439202.420140236441512, 9230674.536270013079047 ], [ 439230.963862770644482, 9230649.779929986223578 ], [ 439254.681314247660339, 9230634.46433168835938 ], [ 439274.946710365824401, 9230609.563100304454565 ], [ 439206.520140236476436, 9230534.97992998547852 ], [ 439204.392001503554638, 9230533.008099999278784 ] ] ] ] } },
{ "type": "Feature", "properties": { "Id": 8, "gridcode": 1 }, "geometry": { "type": "MultiPolygon", "coordinates": [ [ [ [ 439343.792001503461506, 9230410.008099999278784 ], [ 439338.793187111383304, 9230411.411656823009253 ], [ 439342.388444679731037, 9230415.006914392113686 ], [ 439343.792001503461506, 9230410.008099999278784 ] ] ] ] } },
{ "type": "Feature", "properties": { "Id": 9, "gridcode": 1 }, "geometry": { "type": "MultiPolygon", "coordinates": [ [ [ [ 439384.792001503461506, 9230369.008099999278784 ], [ 439362.767326515633613, 9230387.983425011858344 ], [ 439343.792001503461506, 9230410.008099999278784 ], [ 439355.189996498578694, 9230407.880649438127875 ], [ 439388.892001503438223, 9230389.508099999278784 ], [ 439387.217430275399238, 9230378.882671227678657 ], [ 439384.792001503461506, 9230369.008099999278784 ] ] ] ] } },
{ "type": "Feature", "properties": { "Id": 11, "gridcode": 1 }, "geometry": { "type": "MultiPolygon", "coordinates": [ [ [ [ 439048.592001503624488, 9230315.708100000396371 ], [ 439037.235359352780506, 9230317.497908653691411 ], [ 439049.786166542733554, 9230335.675955833867192 ], [ 439069.698092812206596, 9230321.928043236956 ], [ 439050.266572731663473, 9230318.133528770878911 ], [ 439048.592001503624488, 9230315.708100000396371 ] ] ] ] } },
{ "type": "Feature", "properties": { "Id": 12, "gridcode": 1 }, "geometry": { "type": "MultiPolygon", "coordinates": [ [ [ [ 439298.692001503484789, 9230159.908099999651313 ], [ 439295.506831520586275, 9230162.652277246117592 ], [ 439282.932126015191898, 9230196.894309105351567 ], [ 439319.192001503484789, 9230205.008099999278784 ], [ 439312.889540260832291, 9230190.810561241582036 ], [ 439298.692001503484789, 9230159.908099999651313 ] ] ] ] } },
{ "type": "Feature", "properties": { "Id": 13, "gridcode": 1 }, "geometry": { "type": "MultiPolygon", "coordinates": [ [ [ [ 439163.392001503554638, 9229897.508099999278784 ], [ 439087.459170693065971, 9229922.148576989769936 ], [ 439088.077023476304021, 9229952.424426903948188 ], [ 439083.401024025573861, 9229956.917122522369027 ], [ 439078.953747719468083, 9230025.077933374792337 ], [ 439066.984132546116598, 9230071.782874170690775 ], [ 439073.992782753659412, 9230078.516693750396371 ], [ 439063.795521706284489, 9230158.295151391997933 ], [ 439217.19980942591792, 9230186.517122521996498 ], [ 439254.751945656375028, 9230157.233428062871099 ], [ 439169.501024025550578, 9229911.899140039458871 ], [ 439163.392001503554638, 9229897.508099999278784 ] ] ] ] } }
]
}
