{
"type": "FeatureCollection",
"name": "hasil potensi",
"crs": { "type": "name", "properties": { "name": "urn:ogc:def:crs:EPSG::32749" } },
"features": [
{ "type": "Feature", "properties": { "Id": 1, "gridcode": 3 }, "geometry": { "type": "MultiPolygon", "coordinates": [ [ [ [ 438897.178169785067439, 9230746.258538400754333 ], [ 438899.388482191599905, 9230751.423589766025543 ], [ 438899.436935097910464, 9230751.536814369261265 ], [ 438906.473956734873354, 9230747.850327171385288 ], [ 438897.156585366465151, 9230746.208099998533726 ], [ 438897.178169785067439, 9230746.258538400754333 ] ] ] ] } },
{ "type": "Feature", "properties": { "Id": 2, "gridcode": 2 }, "geometry": { "type": "MultiPolygon", "coordinates": [ [ [ [ 439269.992001503531355, 9230647.8081 ], [ 439265.892001503496431, 9230647.8081 ], [ 439267.942001503484789, 9230653.05928560718894 ], [ 439269.992001503531355, 9230647.8081 ] ] ] ] } },
{ "type": "Feature", "properties": { "Id": 3, "gridcode": 3 }, "geometry": { "type": "MultiPolygon", "coordinates": [ [ [ [ 438897.156585366465151, 9230746.208099998533726 ], [ 438902.691579110920429, 9230729.151256052777171 ], [ 438919.41958661749959, 9230694.671101249754429 ], [ 438936.31015897449106, 9230661.883519615978003 ], [ 438935.985873848199844, 9230645.992578763514757 ], [ 438944.476720101200044, 9230616.652892174199224 ], [ 438814.829829080961645, 9230570.098692193627357 ], [ 438767.955365913920105, 9230627.839274467900395 ], [ 438867.194635446183383, 9230708.032261528074741 ], [ 438891.379761941730976, 9230740.657810082659125 ], [ 438897.156585366465151, 9230746.208099998533726 ] ] ] ] } },
{ "type": "Feature", "properties": { "Id": 4, "gridcode": 1 }, "geometry": { "type": "MultiPolygon", "coordinates": [ [ [ [ 439274.092001503508072, 9230647.8081 ], [ 439269.992001503531355, 9230647.8081 ], [ 439267.942001503484789, 9230653.05928560718894 ], [ 439265.892001503496431, 9230647.8081 ], [ 439236.295689552847762, 9230671.487483086064458 ], [ 439228.992001503531355, 9230680.608099998906255 ], [ 439296.679162758402526, 9230677.513393273577094 ], [ 439340.585060280340258, 9230642.986771265044808 ], [ 439377.866369789582677, 9230594.369965234771371 ], [ 439386.763862770516425, 9230568.984511436894536 ], [ 439379.888217323750723, 9230559.736270012333989 ], [ 439356.786491554696113, 9230573.375263849273324 ], [ 439304.920140236383304, 9230621.236270012333989 ], [ 439274.092001503508072, 9230647.8081 ] ] ] ] } },
{ "type": "Feature", "properties": { "Id": 5, "gridcode": 1 }, "geometry": { "type": "MultiPolygon", "coordinates": [ [ [ [ 439204.392001503554638, 9230533.008099999278784 ], [ 439132.449501198425423, 9230597.850642265751958 ], [ 439132.832499855663627, 9230607.514476647600532 ], [ 439095.820140236523002, 9230637.636270012706518 ], [ 439079.438720864010975, 9230645.367312492802739 ], [ 439079.154506081249565, 9230652.538746515288949 ], [ 439143.878839272132609, 9230669.498386254534125 ], [ 439177.663862770656124, 9230674.536270013079047 ], [ 439196.192001503542997, 9230676.508099999278784 ], [ 439202.420140236441512, 9230674.536270013079047 ], [ 439230.963862770644482, 9230649.779929986223578 ], [ 439254.681314247660339, 9230634.46433168835938 ], [ 439274.946710365824401, 9230609.563100304454565 ], [ 439206.520140236476436, 9230534.97992998547852 ], [ 439204.392001503554638, 9230533.008099999278784 ] ] ] ] } },
{ "type": "Feature", "properties": { "Id": 6, "gridcode": 3 }, "geometry": { "type": "MultiPolygon", "coordinates": [ [ [ [ 438892.792001503752545, 9230545.3081 ], [ 438888.692001503775828, 9230545.3081 ], [ 438888.692001503775828, 9230541.208100000396371 ], [ 438878.066604012332391, 9230539.533497491851449 ], [ 438868.192001503775828, 9230537.108099998906255 ], [ 438864.092001503799111, 9230537.108099998906255 ], [ 438864.092001503799111, 9230533.008099999278784 ], [ 438811.411480873939581, 9230530.984313072636724 ], [ 438759.23169876949396, 9230521.898386254906654 ], [ 438723.761593789036851, 9230512.604193748906255 ], [ 438692.340564125974197, 9230501.591261925175786 ], [ 438675.8730294884881, 9230553.604662956669927 ], [ 438761.144909066089895, 9230567.188477959483862 ], [ 438852.393119210086297, 9230563.571761956438422 ], [ 438902.394807595061138, 9230554.865111412480474 ], [ 438911.16383149032481, 9230548.815646996721625 ], [ 438892.792001503752545, 9230545.3081 ] ] ] ] } },
{ "type": "Feature", "properties": { "Id": 7, "gridcode": 3 }, "geometry": { "type": "MultiPolygon", "coordinates": [ [ [ [ 438523.792001503985375, 9230446.908099999651313 ], [ 438507.3920015040203, 9230446.908099999651313 ], [ 438501.524738282256294, 9230451.436862053349614 ], [ 438495.092001504031941, 9230467.408099999651313 ], [ 438531.809995812480338, 9230493.97992998547852 ], [ 438538.220155877177604, 9230465.436270013451576 ], [ 438540.192001504008658, 9230455.108099998906255 ], [ 438540.192001504008658, 9230451.008099999278784 ], [ 438531.992001503997017, 9230451.008099999278784 ], [ 438523.792001503985375, 9230451.008099999278784 ], [ 438523.792001503985375, 9230446.908099999651313 ] ] ] ] } },
{ "type": "Feature", "properties": { "Id": 8, "gridcode": 1 }, "geometry": { "type": "MultiPolygon", "coordinates": [ [ [ [ 439343.792001503461506, 9230410.008099999278784 ], [ 439338.793187111383304, 9230411.411656823009253 ], [ 439342.388444679731037, 9230415.006914392113686 ], [ 439343.792001503461506, 9230410.008099999278784 ] ] ] ] } },
{ "type": "Feature", "properties": { "Id": 9, "gridcode": 1 }, "geometry": { "type": "MultiPolygon", "coordinates": [ [ [ [ 439384.792001503461506, 9230369.008099999278784 ], [ 439362.767326515633613, 9230387.983425011858344 ], [ 439343.792001503461506, 9230410.008099999278784 ], [ 439355.189996498578694, 9230407.880649438127875 ], [ 439388.892001503438223, 9230389.508099999278784 ], [ 439387.217430275399238, 9230378.882671227678657 ], [ 439384.792001503461506, 9230369.008099999278784 ] ] ] ] } },
{ "type": "Feature", "properties": { "Id": 10, "gridcode": 2 }, "geometry": { "type": "MultiPolygon", "coordinates": [ [ [ [ 439274.092001503508072, 9230647.8081 ], [ 439304.920140236383304, 9230621.236270012333989 ], [ 439356.786491554696113, 9230573.375263849273324 ], [ 439379.888217323750723, 9230559.736270012333989 ], [ 439386.763862770516425, 9230568.984511436894536 ], [ 439377.866369789582677, 9230594.369965234771371 ], [ 439340.585060280340258, 9230642.986771265044808 ], [ 439296.679162758402526, 9230677.513393273577094 ], [ 439228.992001503531355, 9230680.608099998906255 ], [ 439194.590126198367216, 9230707.229493966326118 ], [ 439177.619006508437451, 9230723.535105004906654 ], [ 439167.574019020656124, 9230733.990101875737309 ], [ 439130.330558937683236, 9230769.773043312132359 ], [ 439081.31536423554644, 9230857.453538384288549 ], [ 439070.538600319530815, 9230888.938693108037114 ], [ 439144.901024025573861, 9230912.299100937321782 ], [ 439161.382978981593624, 9230916.317099060863256 ], [ 439206.830818337039091, 9230931.873074449598789 ], [ 439260.220218056230806, 9230943.882711090147495 ], [ 439347.181683510309085, 9230956.590542079880834 ], [ 439417.354519813961815, 9230958.022641887888312 ], [ 439415.501024025375955, 9230867.199100937694311 ], [ 439411.436120766098611, 9230618.247353997081518 ], [ 439406.67535111278994, 9230462.696378197520971 ], [ 439397.027876442414708, 9230413.277664819732308 ], [ 439388.892001503438223, 9230389.508099999278784 ], [ 439355.189996498578694, 9230407.880649438127875 ], [ 439343.792001503461506, 9230410.008099999278784 ], [ 439342.388444679731037, 9230415.006914392113686 ], [ 439338.793187111383304, 9230411.411656823009253 ], [ 439343.792001503461506, 9230410.008099999278784 ], [ 439362.767326515633613, 9230387.983425011858344 ], [ 439384.792001503461506, 9230369.008099999278784 ], [ 439373.1193010029383, 9230338.336238732561469 ], [ 439323.588853615277912, 9230380.337715784087777 ], [ 439306.500682228594087, 9230398.78052126429975 ], [ 439251.620140236453153, 9230449.036270013079047 ], [ 439206.55611283169128, 9230489.268708672374487 ], [ 439220.63566147669917, 9230504.464408745989203 ], [ 439228.364138954726513, 9230511.625207390636206 ], [ 439292.461360329180025, 9230604.773552576079965 ], [ 439293.090974587015808, 9230620.657768120989203 ], [ 439276.063862770621199, 9230641.579929986968637 ], [ 439274.092001503508072, 9230647.8081 ] ] ] ] } },
{ "type": "Feature", "properties": { "Id": 11, "gridcode": 1 }, "geometry": { "type": "MultiPolygon", "coordinates": [ [ [ [ 439048.592001503624488, 9230315.708100000396371 ], [ 439037.235359352780506, 9230317.497908653691411 ], [ 439049.786166542733554, 9230335.675955833867192 ], [ 439069.698092812206596, 9230321.928043236956 ], [ 439050.266572731663473, 9230318.133528770878911 ], [ 439048.592001503624488, 9230315.708100000396371 ] ] ] ] } },
{ "type": "Feature", "properties": { "Id": 12, "gridcode": 1 }, "geometry": { "type": "MultiPolygon", "coordinates": [ [ [ [ 439298.692001503484789, 9230159.908099999651313 ], [ 439295.506831520586275, 9230162.652277246117592 ], [ 439282.932126015191898, 9230196.894309105351567 ], [ 439319.192001503484789, 9230205.008099999278784 ], [ 439312.889540260832291, 9230190.810561241582036 ], [ 439298.692001503484789, 9230159.908099999651313 ] ] ] ] } },
{ "type": "Feature", "properties": { "Id": 13, "gridcode": 1 }, "geometry": { "type": "MultiPolygon", "coordinates": [ [ [ [ 439163.392001503554638, 9229897.508099999278784 ], [ 439087.459170693065971, 9229922.148576989769936 ], [ 439088.077023476304021, 9229952.424426903948188 ], [ 439083.401024025573861, 9229956.917122522369027 ], [ 439078.953747719468083, 9230025.077933374792337 ], [ 439066.984132546116598, 9230071.782874170690775 ], [ 439073.992782753659412, 9230078.516693750396371 ], [ 439063.795521706284489, 9230158.295151391997933 ], [ 439217.19980942591792, 9230186.517122521996498 ], [ 439254.751945656375028, 9230157.233428062871099 ], [ 439169.501024025550578, 9229911.899140039458871 ], [ 439163.392001503554638, 9229897.508099999278784 ] ] ] ] } },
{ "type": "Feature", "properties": { "Id": 14, "gridcode": 2 }, "geometry": { "type": "MultiPolygon", "coordinates": [ [ [ [ 438507.656585366465151, 9230446.908100001513958 ], [ 438524.056585367769003, 9230446.908100001513958 ], [ 438523.792001505382359, 9230451.008100003004074 ], [ 438532.256585367023945, 9230451.008100003004074 ], [ 438540.456585368141532, 9230451.008100003004074 ], [ 438540.456585368141532, 9230455.108099998906255 ], [ 438538.484739740379155, 9230465.436270015314221 ], [ 438532.074579675681889, 9230493.97992998547852 ], [ 438495.356585366651416, 9230467.408099999651313 ], [ 438493.347586304880679, 9230477.699108758941293 ], [ 438485.684352166950703, 9230500.087763851508498 ], [ 438453.553630121052265, 9230610.657949702814221 ], [ 438444.967585522681475, 9230627.324991479516029 ], [ 438434.577259167097509, 9230657.681044640019536 ], [ 438452.374919612891972, 9230663.456429162994027 ], [ 438585.004061942920089, 9230710.05586077645421 ], [ 438672.299712808802724, 9230747.825615562498569 ], [ 438779.557573373429477, 9230785.00709330290556 ], [ 438925.197442300617695, 9230838.328794158995152 ], [ 439048.463013894855976, 9230880.520362915471196 ], [ 439061.73877836111933, 9230853.156017556786537 ], [ 439100.06560788769275, 9230781.01710688509047 ], [ 439108.347562844865024, 9230768.799093117937446 ], [ 439118.174650246277452, 9230753.810360588133335 ], [ 439170.339605384506285, 9230703.691104382276535 ], [ 439196.456585366278887, 9230676.508099999278784 ], [ 439177.928446632809937, 9230674.536270013079047 ], [ 439144.143423135392368, 9230669.49838625639677 ], [ 439079.41908994410187, 9230652.538746519014239 ], [ 439079.703304727561772, 9230645.367312492802739 ], [ 439096.084724099375308, 9230637.636270012706518 ], [ 439133.097083719447255, 9230607.514476647600532 ], [ 439132.714085061103106, 9230597.850642265751958 ], [ 439204.656585367396474, 9230533.008100004866719 ], [ 439182.225513895042241, 9230502.203515496104956 ], [ 439181.279090556316078, 9230486.324179710820317 ], [ 439206.821885354816914, 9230465.473399987444282 ], [ 439276.291285378858447, 9230403.742800012230873 ], [ 439314.699006326496601, 9230370.63887850381434 ], [ 439368.463459450751543, 9230322.60076205059886 ], [ 439348.387185343541205, 9230274.477500023320317 ], [ 439329.591285379603505, 9230231.77339998818934 ], [ 439319.456585366278887, 9230205.008100001141429 ], [ 439283.196709879674017, 9230196.894309105351567 ], [ 439295.771415383554995, 9230162.652277246117592 ], [ 439298.956585367210209, 9230159.908099999651313 ], [ 439295.976177651435137, 9230150.72363955155015 ], [ 439226.990249307826161, 9229986.298537321388721 ], [ 439199.96425748616457, 9229923.834471765905619 ], [ 439175.339608437381685, 9229851.891721215099096 ], [ 439164.513045938685536, 9229780.699140038341284 ], [ 439081.977711158804595, 9229784.801016870886087 ], [ 439017.196697671897709, 9229809.317059960216284 ], [ 438989.365607888437808, 9229805.299140041694045 ], [ 438938.138004738837481, 9229797.813086573034525 ], [ 438881.371591622009873, 9229827.056491723284125 ], [ 438837.813189371488988, 9229844.724729027599096 ], [ 438763.865576609969139, 9229866.717059960588813 ], [ 438690.396493203938007, 9229889.471008935943246 ], [ 438640.947578486055136, 9229899.599140038713813 ], [ 438595.074292809702456, 9229907.066800562664866 ], [ 438599.865592247806489, 9229936.499077482149005 ], [ 438607.682922036387026, 9229982.330103175714612 ], [ 438612.634455925785005, 9230025.923132959753275 ], [ 438606.026305825449526, 9230093.488112511113286 ], [ 438582.125910241156816, 9230173.85120302811265 ], [ 438562.965592249296606, 9230235.71712252125144 ], [ 438531.248906954191625, 9230339.473660912364721 ], [ 438526.065584427677095, 9230354.617122521623969 ], [ 438521.911641175858676, 9230380.134204735979438 ], [ 438504.909796196967363, 9230438.883145775645971 ], [ 438507.656585366465151, 9230446.908100001513958 ] ], [ [ 438897.156585366465151, 9230746.208099998533726 ], [ 438891.379761941730976, 9230740.657810082659125 ], [ 438867.194635446183383, 9230708.032261528074741 ], [ 438768.219949777238071, 9230627.839274467900395 ], [ 438814.829829080961645, 9230570.098692193627357 ], [ 438944.476720101200044, 9230616.652892174199224 ], [ 438935.985873848199844, 9230645.992578763514757 ], [ 438936.31015897449106, 9230661.883519615978003 ], [ 438919.41958661749959, 9230694.671101249754429 ], [ 438902.691579110920429, 9230729.151256052777171 ], [ 438897.156585366465151, 9230746.208099998533726 ], [ 438906.473956734873354, 9230747.850327171385288 ], [ 438899.436935097910464, 9230751.536814369261265 ], [ 438897.156585366465151, 9230746.208099998533726 ] ], [ [ 438893.056585367769003, 9230545.3081 ], [ 438911.428415352478623, 9230548.815646996721625 ], [ 438902.659391458146274, 9230554.865111412480474 ], [ 438852.657703073695302, 9230563.571761956438422 ], [ 438761.409492928534746, 9230567.188477959483862 ], [ 438676.137613352388144, 9230553.604662958532572 ], [ 438692.605147989466786, 9230501.591261925175786 ], [ 438724.026177652180195, 9230512.604193748906255 ], [ 438759.49628263246268, 9230521.898386254906654 ], [ 438811.676064738072455, 9230530.984313072636724 ], [ 438864.092001505196095, 9230533.008100001141429 ], [ 438864.092001505196095, 9230537.108099998906255 ], [ 438868.456585367210209, 9230537.108099998906255 ], [ 438878.331187875010073, 9230539.533497491851449 ], [ 438888.692001504823565, 9230541.208100000396371 ], [ 438888.692001504823565, 9230545.3081 ], [ 438893.056585367769003, 9230545.3081 ] ], [ [ 439048.856585366651416, 9230315.708100000396371 ], [ 439050.531156595796347, 9230318.133528770878911 ], [ 439069.962676675058901, 9230321.928043236956 ], [ 439050.050750406458974, 9230335.675955833867192 ], [ 439037.499943215399981, 9230317.497908657416701 ], [ 439048.856585366651416, 9230315.708100000396371 ] ], [ [ 439163.656585367396474, 9229897.508100003004074 ], [ 439169.765607886947691, 9229911.899140039458871 ], [ 439255.016529519110918, 9230157.233428066596389 ], [ 439217.464393288828433, 9230186.517122521996498 ], [ 439064.060105568729341, 9230158.295151391997933 ], [ 439074.257366618141532, 9230078.516693752259016 ], [ 439067.248716408386827, 9230071.782874170690775 ], [ 439079.218331581912935, 9230025.077933374792337 ], [ 439083.665607888251543, 9229956.917122522369027 ], [ 439088.341607338748872, 9229952.424426903948188 ], [ 439087.723754555918276, 9229922.148576993495226 ], [ 439163.656585367396474, 9229897.508100003004074 ] ] ] ] } }
]
}
