{
"type": "FeatureCollection",
"name": "Service_Area_3",
"crs": { "type": "name", "properties": { "name": "urn:ogc:def:crs:EPSG::32749" } },
"features": [
{ "type": "Feature", "properties": { "OBJECTID": 1, "FacilityID": 0, "Name": "0 - 300,344562976084", "FromBreak": 0.0, "ToBreak": 300.34456297600002, "Shape_Leng": 8987.2842786300007, "Shape_Area": 1097500.0 }, "geometry": { "type": "MultiPolygon", "coordinates": [ [ [ [ 439752.16579999960959, 9230658.864399999380112 ], [ 439852.16579999960959, 9230358.864399999380112 ], [ 439777.16579999960959, 9230033.864399999380112 ], [ 439627.16579999960959, 9229833.864399999380112 ], [ 439627.16579999960959, 9229633.864399999380112 ], [ 439552.16579999960959, 9229483.864399999380112 ], [ 439452.16579999960959, 9229383.864399999380112 ], [ 439152.16579999960959, 9229283.864399999380112 ], [ 438752.16579999960959, 9229308.864399999380112 ], [ 438327.16579999960959, 9229483.864399999380112 ], [ 438227.16579999960959, 9229583.864399999380112 ], [ 438127.16579999960959, 9229883.864399999380112 ], [ 438227.16579999960959, 9230208.864399999380112 ], [ 438477.16579999960959, 9230383.864399999380112 ], [ 438677.16579999960959, 9230408.864399999380112 ], [ 438702.16579999960959, 9230483.864399999380112 ], [ 438902.16579999960959, 9230608.864399999380112 ], [ 439027.16579999960959, 9230758.864399999380112 ], [ 439177.16579999960959, 9230833.864399999380112 ], [ 439327.16579999960959, 9230833.864399999380112 ], [ 439327.16579999960959, 9230858.864399999380112 ], [ 439652.16579999960959, 9230758.864399999380112 ], [ 439752.16579999960959, 9230658.864399999380112 ] ], [ [ 438477.16579999960959, 9229683.864399999380112 ], [ 438902.16579999960959, 9229533.864399999380112 ], [ 439152.16579999960959, 9229533.864399999380112 ], [ 439352.16579999960959, 9229633.864399999380112 ], [ 439402.16579999960959, 9229808.864399999380112 ], [ 439352.16579999960959, 9229958.864399999380112 ], [ 439502.16579999960959, 9230033.864399999380112 ], [ 439602.16579999960959, 9230358.864399999380112 ], [ 439502.16579999960959, 9230558.864399999380112 ], [ 439327.16579999960959, 9230608.864399999380112 ], [ 439327.16579999960959, 9230583.864399999380112 ], [ 439177.16579999960959, 9230558.864399999380112 ], [ 439077.16579999960959, 9230408.864399999380112 ], [ 438952.16579999960959, 9230383.864399999380112 ], [ 438852.16579999960959, 9230158.864399999380112 ], [ 438627.16579999960959, 9230158.864399999380112 ], [ 438427.16579999960959, 9230058.864399999380112 ], [ 438377.16579999960959, 9229883.864399999380112 ], [ 438477.16579999960959, 9229683.864399999380112 ] ] ] ] } }
]
}
