{
"type": "FeatureCollection",
"name": "Service_Area_1",
"crs": { "type": "name", "properties": { "name": "urn:ogc:def:crs:EPSG::32749" } },
"features": [
{ "type": "Feature", "properties": { "OBJECTID": 1, "FacilityID": 0, "Name": "0 - 300,344562976084", "FromBreak": 0.0, "ToBreak": 300.34456297600002, "Shape_Leng": 3057.6555287400001, "Shape_Area": 265312.5 }, "geometry": { "type": "MultiPolygon", "coordinates": [ [ [ [ 439027.16579999960959, 9230033.864399999380112 ], [ 439227.16579999960959, 9229858.864399999380112 ], [ 439227.16579999960959, 9229733.864399999380112 ], [ 439152.16579999960959, 9229683.864399999380112 ], [ 438577.16579999960959, 9229808.864399999380112 ], [ 438527.16579999960959, 9229883.864399999380112 ], [ 438627.16579999960959, 9230008.864399999380112 ], [ 438802.16579999960959, 9229983.864399999380112 ], [ 438852.16579999960959, 9230033.864399999380112 ], [ 439027.16579999960959, 9230033.864399999380112 ] ] ], [ [ [ 439377.16579999960959, 9230133.864399999380112 ], [ 439202.16579999960959, 9230058.864399999380112 ], [ 439052.16579999960959, 9230083.864399999380112 ], [ 439002.16579999960959, 9230158.864399999380112 ], [ 439027.16579999960959, 9230233.864399999380112 ], [ 439177.16579999960959, 9230283.864399999380112 ], [ 439227.16579999960959, 9230383.864399999380112 ], [ 439327.16579999960959, 9230433.864399999380112 ], [ 439327.16579999960959, 9230458.864399999380112 ], [ 439452.16579999960959, 9230358.864399999380112 ], [ 439377.16579999960959, 9230133.864399999380112 ] ] ] ] } }
]
}
