{
"type": "FeatureCollection",
"name": "UMKM_Rongsokan_Cukup_Sesuai",
"crs": { "type": "name", "properties": { "name": "urn:ogc:def:crs:OGC:1.3:CRS84" } },
"features": [
{ "type": "Feature", "properties": { "OBJECTID": 1, "pointid": 1, "grid_code": 2 }, "geometry": { "type": "Point", "coordinates": [ 110.450135594000074, -6.96385051999988 ] } },
{ "type": "Feature", "properties": { "OBJECTID": 2, "pointid": 2, "grid_code": 2 }, "geometry": { "type": "Point", "coordinates": [ 110.449108594000222, -6.964045519999956 ] } }
]
}
