{
"type": "FeatureCollection",
"name": "UMKM_Rongsokan_Kurang_Sesuai",
"crs": { "type": "name", "properties": { "name": "urn:ogc:def:crs:OGC:1.3:CRS84" } },
"features": [
{ "type": "Feature", "properties": { "OBJECTID": 3, "pointid": 3, "grid_code": 1 }, "geometry": { "type": "Point", "coordinates": [ 110.446820594000087, -6.966567519999899 ] } },
{ "type": "Feature", "properties": { "OBJECTID": 4, "pointid": 4, "grid_code": 1 }, "geometry": { "type": "Point", "coordinates": [ 110.447327594000114, -6.966749519999951 ] } },
{ "type": "Feature", "properties": { "OBJECTID": 5, "pointid": 5, "grid_code": 1 }, "geometry": { "type": "Point", "coordinates": [ 110.447067594000089, -6.9668145199999 ] } },
{ "type": "Feature", "properties": { "OBJECTID": 6, "pointid": 6, "grid_code": 1 }, "geometry": { "type": "Point", "coordinates": [ 110.448081594000143, -6.967503519999809 ] } },
{ "type": "Feature", "properties": { "OBJECTID": 7, "pointid": 7, "grid_code": 1 }, "geometry": { "type": "Point", "coordinates": [ 110.448302594000097, -6.967568519999929 ] } },
{ "type": "Feature", "properties": { "OBJECTID": 8, "pointid": 8, "grid_code": 1 }, "geometry": { "type": "Point", "coordinates": [ 110.447080594000113, -6.967607519999888 ] } }
]
}
